KUIPER-00517            
1 69600U 26140J   26201.44558600  .00016247  00000+0  42506-3 0  9996
2 69600  51.8759 237.6291 0010604 312.3615  47.6473 15.38832216  6354
KUIPER-00520            
1 69601U 26140K   26202.12362351  .00019158  00000+0  51772-3 0  9998
2 69601  51.8795 234.6843 0007075  16.4399 343.6816 15.37734365  6450
KUIPER-00522            
1 69602U 26140L   26201.37796947  .00016581  00000+0  43558-3 0  9997
2 69602  51.8770 237.9323 0012648 285.9720  73.9874 15.38666541  6342
KUIPER-00528            
1 69603U 26140M   26202.25728637 -.00068305  00000+0 -18598-2 0  9995
2 69603  51.8774 234.0660 0003975 357.0449   3.0514 15.37064020  6473
KUIPER-00532            
1 69604U 26140N   26201.49156928  .00016644  00000+0  46864-3 0  9994
2 69604  51.8777 237.9299 0005386  45.1343 315.0080 15.36570698  6356
KUIPER-00533            
1 69605U 26140P   26201.45843611  .00016373  00000+0  43530-3 0  9999
2 69605  51.8768 237.7184 0008086 346.1760  13.9005 15.38352154  6353
KUIPER-00534            
1 69606U 26140Q   26201.82698850  .00021929  00000+0  56941-3 0  9997
2 69606  51.8802 235.7020 0013373 289.1220  70.8319 15.38814753  6417
KUIPER-00537            
1 69607U 26140R   26202.25003472 -.00721005  00000+0 -26474-1 0  9996
2 69607  51.8809 234.7042 0009520  74.5939 321.7128 15.29990777  5775
KUIPER-00538            
1 69608U 26140S   26201.40597217  .00010367  00000+0  28468-3 0  9995
2 69608  51.8793 238.1190 0006847   1.2868 358.8136 15.37803546  6347
KUIPER-00540            
1 69609U 26140T   26201.81061103  .00013910  00000+0  38757-3 0  9990
2 69609  51.8814 236.3321 0006539  39.0306 321.1151 15.37046111  6406
KUIPER-00541            
1 69610U 26140U   26201.32813981  .00012802  00000+0  34357-3 0  9998
2 69610  51.8800 238.3571 0007716 336.9767  23.0873 15.38284409  6336
KUIPER-00542            
1 69611U 26140V   26202.00002315  .00049644  00000+0  12935-2 0  9997
2 69611  51.8767 235.0759 0007705 325.9577 164.2984 15.38345066  5456
KUIPER-00543            
1 69612U 26140W   26201.36049078  .00010842  00000+0  30587-3 0  9995
2 69612  51.8785 238.5466 0008069  53.1774 306.9952 15.36903174  6339
KUIPER-00544            
1 69613U 26140X   26201.33174301  .00016632  00000+0  44362-3 0  9990
2 69613  51.8776 238.3674 0007045 340.3913  19.6802 15.38246453  6332
KUIPER-00546            
1 69614U 26140Y   26202.09033637  .00024410  00000+0  64666-3 0  9993
2 69614  51.8759 234.4566 0013711 286.6404  73.3078 15.38126470  6456
KUIPER-00547            
1 69615U 26140Z   26201.65169759  .00208802  00000+0  53014-2 0  9993
2 69615  51.8771 236.7672 0012045 305.1870  54.7988 15.38276512  6385
