{"fetched_at":"2026-07-21T17:53:03.255Z","source":"https://celestrak.org/NORAD/elements/gp.php?GROUP=kuiper&FORMAT=JSON","constellation":"kuiper","records":[{"OBJECT_NAME":"KUIPER-00517","OBJECT_ID":"2026-140J","EPOCH":"2026-07-20T10:41:38.630400","CLASSIFICATION_TYPE":"U","MEAN_MOTION":15.38832216,"ECCENTRICITY":0.00106042,"INCLINATION":51.8759,"RA_OF_ASC_NODE":237.6291,"ARG_OF_PERICENTER":312.3615,"MEAN_ANOMALY":47.6473,"EPHEMERIS_TYPE":0,"NORAD_CAT_ID":69600,"ELEMENT_SET_NO":999,"REV_AT_EPOCH":635,"BSTAR":0.00042506374,"MEAN_MOTION_DOT":0.00016247,"MEAN_MOTION_DDOT":0},{"OBJECT_NAME":"KUIPER-00520","OBJECT_ID":"2026-140K","EPOCH":"2026-07-21T02:58:01.071264","CLASSIFICATION_TYPE":"U","MEAN_MOTION":15.37734365,"ECCENTRICITY":0.00070758,"INCLINATION":51.8795,"RA_OF_ASC_NODE":234.6843,"ARG_OF_PERICENTER":16.4399,"MEAN_ANOMALY":343.6816,"EPHEMERIS_TYPE":0,"NORAD_CAT_ID":69601,"ELEMENT_SET_NO":999,"REV_AT_EPOCH":645,"BSTAR":0.00051772308,"MEAN_MOTION_DOT":0.00019158,"MEAN_MOTION_DDOT":0},{"OBJECT_NAME":"KUIPER-00522","OBJECT_ID":"2026-140L","EPOCH":"2026-07-20T09:04:16.562208","CLASSIFICATION_TYPE":"U","MEAN_MOTION":15.38666541,"ECCENTRICITY":0.00126486,"INCLINATION":51.877,"RA_OF_ASC_NODE":237.9323,"ARG_OF_PERICENTER":285.972,"MEAN_ANOMALY":73.9874,"EPHEMERIS_TYPE":0,"NORAD_CAT_ID":69602,"ELEMENT_SET_NO":999,"REV_AT_EPOCH":634,"BSTAR":0.00043557542,"MEAN_MOTION_DOT":0.00016581,"MEAN_MOTION_DDOT":0},{"OBJECT_NAME":"KUIPER-00528","OBJECT_ID":"2026-140M","EPOCH":"2026-07-21T06:10:29.542368","CLASSIFICATION_TYPE":"U","MEAN_MOTION":15.3706402,"ECCENTRICITY":0.00039753,"INCLINATION":51.8774,"RA_OF_ASC_NODE":234.066,"ARG_OF_PERICENTER":357.0449,"MEAN_ANOMALY":3.0514,"EPHEMERIS_TYPE":0,"NORAD_CAT_ID":69603,"ELEMENT_SET_NO":999,"REV_AT_EPOCH":647,"BSTAR":-0.001859843,"MEAN_MOTION_DOT":-0.00068305,"MEAN_MOTION_DDOT":0},{"OBJECT_NAME":"KUIPER-00532","OBJECT_ID":"2026-140N","EPOCH":"2026-07-20T11:47:51.585792","CLASSIFICATION_TYPE":"U","MEAN_MOTION":15.36570698,"ECCENTRICITY":0.0005386,"INCLINATION":51.8777,"RA_OF_ASC_NODE":237.9299,"ARG_OF_PERICENTER":45.1343,"MEAN_ANOMALY":315.008,"EPHEMERIS_TYPE":0,"NORAD_CAT_ID":69604,"ELEMENT_SET_NO":999,"REV_AT_EPOCH":635,"BSTAR":0.00046864267,"MEAN_MOTION_DOT":0.00016644,"MEAN_MOTION_DDOT":0},{"OBJECT_NAME":"KUIPER-00533","OBJECT_ID":"2026-140P","EPOCH":"2026-07-20T11:00:08.879904","CLASSIFICATION_TYPE":"U","MEAN_MOTION":15.38352154,"ECCENTRICITY":0.0008086,"INCLINATION":51.8768,"RA_OF_ASC_NODE":237.7184,"ARG_OF_PERICENTER":346.176,"MEAN_ANOMALY":13.9005,"EPHEMERIS_TYPE":0,"NORAD_CAT_ID":69605,"ELEMENT_SET_NO":999,"REV_AT_EPOCH":635,"BSTAR":0.0004353022,"MEAN_MOTION_DOT":0.00016373,"MEAN_MOTION_DDOT":0},{"OBJECT_NAME":"KUIPER-00534","OBJECT_ID":"2026-140Q","EPOCH":"2026-07-20T19:50:51.806400","CLASSIFICATION_TYPE":"U","MEAN_MOTION":15.38814753,"ECCENTRICITY":0.00133735,"INCLINATION":51.8802,"RA_OF_ASC_NODE":235.702,"ARG_OF_PERICENTER":289.122,"MEAN_ANOMALY":70.8319,"EPHEMERIS_TYPE":0,"NORAD_CAT_ID":69606,"ELEMENT_SET_NO":999,"REV_AT_EPOCH":641,"BSTAR":0.00056940793,"MEAN_MOTION_DOT":0.00021929,"MEAN_MOTION_DDOT":0},{"OBJECT_NAME":"KUIPER-00537","OBJECT_ID":"2026-140R","EPOCH":"2026-07-21T06:00:02.999808","CLASSIFICATION_TYPE":"U","MEAN_MOTION":15.29990777,"ECCENTRICITY":0.00095204,"INCLINATION":51.8809,"RA_OF_ASC_NODE":234.7042,"ARG_OF_PERICENTER":74.5939,"MEAN_ANOMALY":321.7128,"EPHEMERIS_TYPE":0,"NORAD_CAT_ID":69607,"ELEMENT_SET_NO":999,"REV_AT_EPOCH":577,"BSTAR":-0.026473894,"MEAN_MOTION_DOT":-0.00721005,"MEAN_MOTION_DDOT":0},{"OBJECT_NAME":"KUIPER-00538","OBJECT_ID":"2026-140S","EPOCH":"2026-07-20T09:44:35.995488","CLASSIFICATION_TYPE":"U","MEAN_MOTION":15.37803546,"ECCENTRICITY":0.00068475,"INCLINATION":51.8793,"RA_OF_ASC_NODE":238.119,"ARG_OF_PERICENTER":1.2868,"MEAN_ANOMALY":358.8136,"EPHEMERIS_TYPE":0,"NORAD_CAT_ID":69608,"ELEMENT_SET_NO":999,"REV_AT_EPOCH":634,"BSTAR":0.00028468149,"MEAN_MOTION_DOT":0.00010367,"MEAN_MOTION_DDOT":0},{"OBJECT_NAME":"KUIPER-00540","OBJECT_ID":"2026-140T","EPOCH":"2026-07-20T19:27:16.792992","CLASSIFICATION_TYPE":"U","MEAN_MOTION":15.37046111,"ECCENTRICITY":0.00065398,"INCLINATION":51.8814,"RA_OF_ASC_NODE":236.3321,"ARG_OF_PERICENTER":39.0306,"MEAN_ANOMALY":321.1151,"EPHEMERIS_TYPE":0,"NORAD_CAT_ID":69609,"ELEMENT_SET_NO":999,"REV_AT_EPOCH":640,"BSTAR":0.00038756764,"MEAN_MOTION_DOT":0.0001391,"MEAN_MOTION_DDOT":0},{"OBJECT_NAME":"KUIPER-00541","OBJECT_ID":"2026-140U","EPOCH":"2026-07-20T07:52:31.279584","CLASSIFICATION_TYPE":"U","MEAN_MOTION":15.38284409,"ECCENTRICITY":0.0007716,"INCLINATION":51.88,"RA_OF_ASC_NODE":238.3571,"ARG_OF_PERICENTER":336.9767,"MEAN_ANOMALY":23.0873,"EPHEMERIS_TYPE":0,"NORAD_CAT_ID":69610,"ELEMENT_SET_NO":999,"REV_AT_EPOCH":633,"BSTAR":0.00034357,"MEAN_MOTION_DOT":0.00012802,"MEAN_MOTION_DDOT":0},{"OBJECT_NAME":"KUIPER-00542","OBJECT_ID":"2026-140V","EPOCH":"2026-07-21T00:00:02.000160","CLASSIFICATION_TYPE":"U","MEAN_MOTION":15.38345066,"ECCENTRICITY":0.0007705,"INCLINATION":51.8767,"RA_OF_ASC_NODE":235.0759,"ARG_OF_PERICENTER":325.9577,"MEAN_ANOMALY":164.2984,"EPHEMERIS_TYPE":0,"NORAD_CAT_ID":69611,"ELEMENT_SET_NO":999,"REV_AT_EPOCH":545,"BSTAR":0.0012935372,"MEAN_MOTION_DOT":0.00049644,"MEAN_MOTION_DDOT":0},{"OBJECT_NAME":"KUIPER-00543","OBJECT_ID":"2026-140W","EPOCH":"2026-07-20T08:39:06.403392","CLASSIFICATION_TYPE":"U","MEAN_MOTION":15.36903174,"ECCENTRICITY":0.0008069,"INCLINATION":51.8785,"RA_OF_ASC_NODE":238.5466,"ARG_OF_PERICENTER":53.1774,"MEAN_ANOMALY":306.9952,"EPHEMERIS_TYPE":0,"NORAD_CAT_ID":69612,"ELEMENT_SET_NO":999,"REV_AT_EPOCH":633,"BSTAR":0.00030587,"MEAN_MOTION_DOT":0.00010842,"MEAN_MOTION_DDOT":0},{"OBJECT_NAME":"KUIPER-00544","OBJECT_ID":"2026-140X","EPOCH":"2026-07-20T07:57:42.596064","CLASSIFICATION_TYPE":"U","MEAN_MOTION":15.38246453,"ECCENTRICITY":0.0007045,"INCLINATION":51.8776,"RA_OF_ASC_NODE":238.3674,"ARG_OF_PERICENTER":340.3913,"MEAN_ANOMALY":19.6802,"EPHEMERIS_TYPE":0,"NORAD_CAT_ID":69613,"ELEMENT_SET_NO":999,"REV_AT_EPOCH":633,"BSTAR":0.00044362,"MEAN_MOTION_DOT":0.00016632,"MEAN_MOTION_DDOT":0},{"OBJECT_NAME":"KUIPER-00546","OBJECT_ID":"2026-140Y","EPOCH":"2026-07-21T02:10:05.062368","CLASSIFICATION_TYPE":"U","MEAN_MOTION":15.3812647,"ECCENTRICITY":0.00137117,"INCLINATION":51.8759,"RA_OF_ASC_NODE":234.4566,"ARG_OF_PERICENTER":286.6404,"MEAN_ANOMALY":73.3078,"EPHEMERIS_TYPE":0,"NORAD_CAT_ID":69614,"ELEMENT_SET_NO":999,"REV_AT_EPOCH":645,"BSTAR":0.00064666026,"MEAN_MOTION_DOT":0.0002441,"MEAN_MOTION_DDOT":0},{"OBJECT_NAME":"KUIPER-00547","OBJECT_ID":"2026-140Z","EPOCH":"2026-07-20T15:38:26.671776","CLASSIFICATION_TYPE":"U","MEAN_MOTION":15.38276512,"ECCENTRICITY":0.00120451,"INCLINATION":51.8771,"RA_OF_ASC_NODE":236.7672,"ARG_OF_PERICENTER":305.187,"MEAN_ANOMALY":54.7988,"EPHEMERIS_TYPE":0,"NORAD_CAT_ID":69615,"ELEMENT_SET_NO":999,"REV_AT_EPOCH":638,"BSTAR":0.0053014218,"MEAN_MOTION_DOT":0.00208802,"MEAN_MOTION_DDOT":0}]}
